start=new Date('2022-10-01T00:00:00.000Z').valueOf();
sats=[{"RA_OF_ASC_NODE":"46.9029","COUNTRY_CODE":"US","MEAN_MOTION":"15.08845522","PERIAPSIS":"538.491","RCS_SIZE":"LARGE","GP_ID":"213907876","DECAY_DATE":null,"NORAD_CAT_ID":"50822","MEAN_ANOMALY":"308.7418","MEAN_ELEMENT_THEORY":"SGP4","LAUNCH_DATE":"2022-01-06","CLASSIFICATION_TYPE":"U","SEMIMAJOR_AXIS":"6917.864","INCLINATION":"53.2176","APOAPSIS":"540.966","BSTAR":"0.00036481000000","CENTER_NAME":"EARTH","SITE":"AFETR","FILE":"3587966","TIME_SYSTEM":"UTC","MEAN_MOTION_DOT":"0.00005524","ARG_OF_PERICENTER":"51.3734","REF_FRAME":"TEME","REV_AT_EPOCH":"4081","MEAN_MOTION_DDOT":"0.0000000000000","ECCENTRICITY":"0.00017890","OBJECT_TYPE":"PAYLOAD","PERIOD":"95.437","OBJECT_ID":"2022-001V","EPHEMERIS_TYPE":"0","OBJECT_NAME":"STARLINK-3343","TLE_LINE1":"1 50822U 22001V   22273.83144421  .00005524  00000-0  36481-3 0  9996","EPOCH":"2022-09-30T19:57:16.779744","ELEMENT_SET_NO":"999","TLE_LINE2":"2 50822  53.2176  46.9029 0001789  51.3734 308.7418 15.08845522 40815"},{"BSTAR":"-0.00003446100000","CENTER_NAME":"EARTH","FILE":"3587966","SITE":"AFETR","TIME_SYSTEM":"UTC","MEAN_MOTION_DOT":"-0.00000837","REF_FRAME":"TEME","ARG_OF_PERICENTER":"70.1322","REV_AT_EPOCH":"4081","ECCENTRICITY":"0.00017880","MEAN_MOTION_DDOT":"0.0000000000000","PERIOD":"95.437","OBJECT_ID":"2022-001W","OBJECT_TYPE":"PAYLOAD","EPHEMERIS_TYPE":"0","OBJECT_NAME":"STARLINK-3334","TLE_LINE1":"1 50823U 22001W   22273.79832579 -.00000837  00000-0 -34461-4 0  9991","EPOCH":"2022-09-30T19:09:35.348256","TLE_LINE2":"2 50823  53.2182  47.0458 0001788  70.1322 289.9862 15.08841014 40817","ELEMENT_SET_NO":"999","RA_OF_ASC_NODE":"47.0458","COUNTRY_CODE":"US","MEAN_MOTION":"15.08841014","PERIAPSIS":"538.505","RCS_SIZE":"LARGE","DECAY_DATE":null,"GP_ID":"213906647","NORAD_CAT_ID":"50823","MEAN_ANOMALY":"289.9862","CLASSIFICATION_TYPE":"U","MEAN_ELEMENT_THEORY":"SGP4","LAUNCH_DATE":"2022-01-06","SEMIMAJOR_AXIS":"6917.877","INCLINATION":"53.2182","APOAPSIS":"540.979"},{"PERIAPSIS":"538.459","MEAN_MOTION":"15.08831172","GP_ID":"213906897","DECAY_DATE":null,"RCS_SIZE":"LARGE","RA_OF_ASC_NODE":"47.2131","COUNTRY_CODE":"US","APOAPSIS":"541.086","INCLINATION":"53.2178","SEMIMAJOR_AXIS":"6917.907","NORAD_CAT_ID":"50824","LAUNCH_DATE":"2022-01-06","MEAN_ELEMENT_THEORY":"SGP4","CLASSIFICATION_TYPE":"U","MEAN_ANOMALY":"310.4207","TIME_SYSTEM":"UTC","MEAN_MOTION_DOT":"0.00002792","SITE":"AFETR","FILE":"3587966","REV_AT_EPOCH":"4080","REF_FRAME":"TEME","ARG_OF_PERICENTER":"49.6951","BSTAR":"0.00019352000000","CENTER_NAME":"EARTH","OBJECT_NAME":"STARLINK-3340","TLE_LINE1":"1 50824U 22001X   22273.76151750  .00002792  00000-0  19352-3 0  9995","ELEMENT_SET_NO":"999","TLE_LINE2":"2 50824  53.2178  47.2131 0001899  49.6951 310.4207 15.08831172 40801","EPOCH":"2022-09-30T18:16:35.112000","MEAN_MOTION_DDOT":"0.0000000000000","ECCENTRICITY":"0.00018990","EPHEMERIS_TYPE":"0","OBJECT_TYPE":"PAYLOAD","OBJECT_ID":"2022-001X","PERIOD":"95.438"},{"OBJECT_NAME":"STARLINK-3332","TLE_LINE1":"1 50825U 22001Y   22273.63640816  .00018342  00000-0  11674-2 0  9994","TLE_LINE2":"2 50825  53.2159  47.7696 0001935  48.0985 312.0172 15.08843684 40780","ELEMENT_SET_NO":"999","EPOCH":"2022-09-30T15:16:25.665024","ECCENTRICITY":"0.00019350","MEAN_MOTION_DDOT":"0.0000000000000","EPHEMERIS_TYPE":"0","PERIOD":"95.437","OBJECT_ID":"2022-001Y","OBJECT_TYPE":"PAYLOAD","TIME_SYSTEM":"UTC","MEAN_MOTION_DOT":"0.00018342","FILE":"3587966","SITE":"AFETR","REV_AT_EPOCH":"4078","REF_FRAME":"TEME","ARG_OF_PERICENTER":"48.0985","BSTAR":"0.00116740000000","CENTER_NAME":"EARTH","INCLINATION":"53.2159","APOAPSIS":"541.073","SEMIMAJOR_AXIS":"6917.869","NORAD_CAT_ID":"50825","CLASSIFICATION_TYPE":"U","LAUNCH_DATE":"2022-01-06","MEAN_ELEMENT_THEORY":"SGP4","MEAN_ANOMALY":"312.0172","PERIAPSIS":"538.396","MEAN_MOTION":"15.08843684","DECAY_DATE":null,"GP_ID":"213907149","RCS_SIZE":"LARGE","RA_OF_ASC_NODE":"47.7696","COUNTRY_CODE":"US"},{"RA_OF_ASC_NODE":"46.9599","COUNTRY_CODE":"US","MEAN_MOTION":"15.08862100","PERIAPSIS":"538.487","RCS_SIZE":"LARGE","DECAY_DATE":null,"GP_ID":"213907377","NORAD_CAT_ID":"50826","MEAN_ANOMALY":"309.6093","CLASSIFICATION_TYPE":"U","MEAN_ELEMENT_THEORY":"SGP4","LAUNCH_DATE":"2022-01-06","SEMIMAJOR_AXIS":"6917.813","INCLINATION":"53.2179","APOAPSIS":"540.868","BSTAR":"0.00061711000000","CENTER_NAME":"EARTH","FILE":"3587966","SITE":"AFETR","TIME_SYSTEM":"UTC","MEAN_MOTION_DOT":"0.00009553","ARG_OF_PERICENTER":"50.5051","REF_FRAME":"TEME","REV_AT_EPOCH":"4081","ECCENTRICITY":"0.00017210","MEAN_MOTION_DDOT":"0.0000000000000","OBJECT_ID":"2022-001Z","PERIOD":"95.436","OBJECT_TYPE":"PAYLOAD","EPHEMERIS_TYPE":"0","TLE_LINE1":"1 50826U 22001Z   22273.81303995  .00009553  00000-0  61711-3 0  9991","OBJECT_NAME":"STARLINK-3337","EPOCH":"2022-09-30T19:30:46.651680","ELEMENT_SET_NO":"999","TLE_LINE2":"2 50826  53.2179  46.9599 0001721  50.5051 309.6093 15.08862100 40813"},{"SEMIMAJOR_AXIS":"6917.856","APOAPSIS":"540.933","INCLINATION":"53.2176","MEAN_ANOMALY":"310.5388","MEAN_ELEMENT_THEORY":"SGP4","LAUNCH_DATE":"2022-01-06","CLASSIFICATION_TYPE":"U","NORAD_CAT_ID":"50827","RCS_SIZE":"LARGE","GP_ID":"213906148","DECAY_DATE":null,"MEAN_MOTION":"15.08847821","PERIAPSIS":"538.510","COUNTRY_CODE":"US","RA_OF_ASC_NODE":"47.1279","EPOCH":"2022-09-30T18:43:04.365696","ELEMENT_SET_NO":"999","TLE_LINE2":"2 50827  53.2176  47.1279 0001751  49.5757 310.5388 15.08847821 40803","TLE_LINE1":"1 50827U 22001AA  22273.77991164  .00002111  00000-0  15066-3 0  9993","OBJECT_NAME":"STARLINK-3329","OBJECT_TYPE":"PAYLOAD","OBJECT_ID":"2022-001AA","PERIOD":"95.437","EPHEMERIS_TYPE":"0","MEAN_MOTION_DDOT":"0.0000000000000","ECCENTRICITY":"0.00017510","REF_FRAME":"TEME","ARG_OF_PERICENTER":"49.5757","REV_AT_EPOCH":"4080","SITE":"AFETR","FILE":"3587966","TIME_SYSTEM":"UTC","MEAN_MOTION_DOT":"0.00002111","CENTER_NAME":"EARTH","BSTAR":"0.00015066000000"},{"NORAD_CAT_ID":"50828","MEAN_ANOMALY":"312.5603","LAUNCH_DATE":"2022-01-06","MEAN_ELEMENT_THEORY":"SGP4","CLASSIFICATION_TYPE":"U","SEMIMAJOR_AXIS":"6917.861","APOAPSIS":"541.287","INCLINATION":"53.2156","RA_OF_ASC_NODE":"47.1411","COUNTRY_CODE":"US","MEAN_MOTION":"15.08846328","PERIAPSIS":"538.165","RCS_SIZE":"LARGE","GP_ID":"213906398","DECAY_DATE":null,"MEAN_MOTION_DDOT":"0.0000000000000","ECCENTRICITY":"0.00022570","OBJECT_TYPE":"PAYLOAD","PERIOD":"95.437","OBJECT_ID":"2022-001AB","EPHEMERIS_TYPE":"0","OBJECT_NAME":"STARLINK-3290","TLE_LINE1":"1 50828U 22001AB  22273.77718749  .00002457  00000-0  17239-3 0  9997","EPOCH":"2022-09-30T18:39:08.999136","TLE_LINE2":"2 50828  53.2156  47.1411 0002257  47.5580 312.5603 15.08846328 40650","ELEMENT_SET_NO":"999","BSTAR":"0.00017239000000","CENTER_NAME":"EARTH","SITE":"AFETR","FILE":"3587966","TIME_SYSTEM":"UTC","MEAN_MOTION_DOT":"0.00002457","REF_FRAME":"TEME","ARG_OF_PERICENTER":"47.5580","REV_AT_EPOCH":"4065"},{"REF_FRAME":"TEME","ARG_OF_PERICENTER":"52.1852","REV_AT_EPOCH":"4080","FILE":"3587966","SITE":"AFETR","TIME_SYSTEM":"UTC","MEAN_MOTION_DOT":"0.00011585","CENTER_NAME":"EARTH","BSTAR":"0.00074455000000","EPOCH":"2022-09-30T18:53:40.702560","ELEMENT_SET_NO":"999","TLE_LINE2":"2 50829  53.2181  47.0904 0001868  52.1852 307.9309 15.08852118 40808","OBJECT_NAME":"STARLINK-3294","TLE_LINE1":"1 50829U 22001AC  22273.78727665  .00011585  00000-0  74455-3 0  9991","PERIOD":"95.437","OBJECT_ID":"2022-001AC","OBJECT_TYPE":"PAYLOAD","EPHEMERIS_TYPE":"0","ECCENTRICITY":"0.00018680","MEAN_MOTION_DDOT":"0.0000000000000","RCS_SIZE":"LARGE","DECAY_DATE":null,"GP_ID":"213907649","MEAN_MOTION":"15.08852118","PERIAPSIS":"538.416","COUNTRY_CODE":"US","RA_OF_ASC_NODE":"47.0904","SEMIMAJOR_AXIS":"6917.843","APOAPSIS":"541.001","INCLINATION":"53.2181","MEAN_ANOMALY":"307.9309","CLASSIFICATION_TYPE":"U","MEAN_ELEMENT_THEORY":"SGP4","LAUNCH_DATE":"2022-01-06","NORAD_CAT_ID":"50829"},{"REV_AT_EPOCH":"4067","ARG_OF_PERICENTER":"46.0331","REF_FRAME":"TEME","TIME_SYSTEM":"UTC","MEAN_MOTION_DOT":"0.00000872","FILE":"3587966","SITE":"AFETR","CENTER_NAME":"EARTH","BSTAR":"0.00007290000000","TLE_LINE2":"2 50830  53.2156  57.0222 0002240  46.0331 314.0845 15.08833935 40670","ELEMENT_SET_NO":"999","EPOCH":"2022-09-30T19:18:52.094304","TLE_LINE1":"1 50830U 22001AD  22273.80476961  .00000872  00000-0  72900-4 0  9997","OBJECT_NAME":"STARLINK-3278","EPHEMERIS_TYPE":"0","PERIOD":"95.438","OBJECT_ID":"2022-001AD","OBJECT_TYPE":"PAYLOAD","ECCENTRICITY":"0.00022400","MEAN_MOTION_DDOT":"0.0000000000000","DECAY_DATE":null,"GP_ID":"213907877","RCS_SIZE":"LARGE","PERIAPSIS":"538.214","MEAN_MOTION":"15.08833935","COUNTRY_CODE":"US","RA_OF_ASC_NODE":"57.0222","APOAPSIS":"541.314","INCLINATION":"53.2156","SEMIMAJOR_AXIS":"6917.899","CLASSIFICATION_TYPE":"U","MEAN_ELEMENT_THEORY":"SGP4","LAUNCH_DATE":"2022-01-06","MEAN_ANOMALY":"314.0845","NORAD_CAT_ID":"50830"},{"MEAN_MOTION_DOT":"0.00003103","TIME_SYSTEM":"UTC","FILE":"3587966","SITE":"AFETR","REV_AT_EPOCH":"4081","ARG_OF_PERICENTER":"46.4273","REF_FRAME":"TEME","BSTAR":"0.00021290000000","CENTER_NAME":"EARTH","OBJECT_NAME":"STARLINK-3299","TLE_LINE1":"1 50831U 22001AE  22273.81030304  .00003103  00000-0  21290-3 0  9991","ELEMENT_SET_NO":"999","TLE_LINE2":"2 50831  53.2196  46.9798 0001737  46.4273 313.6863 15.08849179 40817","EPOCH":"2022-09-30T19:26:50.182656","ECCENTRICITY":"0.00017370","MEAN_MOTION_DDOT":"0.0000000000000","EPHEMERIS_TYPE":"0","PERIOD":"95.437","OBJECT_ID":"2022-001AE","OBJECT_TYPE":"PAYLOAD","PERIAPSIS":"538.516","MEAN_MOTION":"15.08849179","DECAY_DATE":null,"GP_ID":"213906648","RCS_SIZE":"LARGE","RA_OF_ASC_NODE":"46.9798","COUNTRY_CODE":"US","APOAPSIS":"540.919","INCLINATION":"53.2196","SEMIMAJOR_AXIS":"6917.852","NORAD_CAT_ID":"50831","CLASSIFICATION_TYPE":"U","LAUNCH_DATE":"2022-01-06","MEAN_ELEMENT_THEORY":"SGP4","MEAN_ANOMALY":"313.6863"}];
